ONEWEB-0520             
1 54138U 22138AB  26204.67353987  .00000022  00000+0  22718-4 0  9996
2 54138  87.9187 297.7033 0002192 106.7272 253.4101 13.19724833181639
ONEWEB-0521             
1 54139U 22138AC  26204.70669547 -.00000064  00000+0 -19136-3 0  9990
2 54139  87.9196 297.6867 0001797  98.4050 261.7287 13.19724154181582
ONEWEB-0522             
1 54140U 22138AD  26204.68617076  .00000050  00000+0  91829-4 0  9992
2 54140  87.9192 297.6932 0002042 105.0191 255.1168 13.19724030181621
ONEWEB-0523             
1 54141U 22138AE  26204.46833212 -.00000044  00000+0 -14049-3 0  9994
2 54141  87.9176 267.2111 0001953  73.8219 286.3129 13.20769774184092
ONEWEB-0524             
1 54142U 22138AF  26204.53400087  .00007276  00000+0  17857-1 0  9993
2 54142  87.9175 267.1948 0002897  82.9604 277.1859 13.20735155184102
ONEWEB-0525             
1 54143U 22138AG  26204.70512748 -.00000022  00000+0 -87238-4 0  9998
2 54143  87.9187 297.6963 0002317 106.1303 254.0085 13.19724064181649
ONEWEB-0526             
1 54144U 22138AH  26204.28339678  .00000064  00000+0  12796-3 0  9991
2 54144  87.9189 297.7805 0002174 101.6202 258.5175 13.19725094181561
ONEWEB-0529             
1 54145U 22138AJ  26204.66563874 -.00000024  00000+0 -91166-4 0  9998
2 54145  87.9182 297.7111 0002184 105.1860 254.9515 13.19726441181638
ONEWEB-0531             
1 54146U 22138AK  26204.59627516  .00000052  00000+0  96157-4 0  9999
2 54146  87.9175 267.1797 0002275  75.2768 284.8617 13.20770029184111
ONEWEB-0535             
1 54147U 22138AL  26204.31971573 -.00000028  00000+0 -10319-3 0  9995
2 54147  87.9195 297.7672 0001859  91.6269 268.5077 13.19723798181609
ONEWEB-0536             
1 54148U 22138AM  26204.20402354  .00000056  00000+0  10614-3 0  9997
2 54148  87.9162 267.2761 0002482  74.2682 285.8725 13.20770048184050
ONEWEB-0527             
1 54642U 22166A   26204.35951457  .00000022  00000+0  22754-4 0  9998
2 54642  87.9223 236.7967 0002079  96.0603 264.0768 13.21827632176312
ONEWEB-0528             
1 54643U 22166B   26204.36036536  .00000019  00000+0  14655-4 0  9999
2 54643  87.9226 236.7994 0002234  99.0037 261.1349 13.21825996176328
ONEWEB-0539             
1 54644U 22166C   26204.17112772 -.00000048  00000+0 -14789-3 0  9997
2 54644  87.9236 236.8115 0001852  97.4397 262.6948 13.21823389176293
ONEWEB-0540             
1 54645U 22166D   26204.17799528 -.00000016  00000+0 -70095-4 0  9996
2 54645  87.9228 236.8378 0001989  95.4175 264.7185 13.21824467176282
ONEWEB-0542             
1 54646U 22166E   26204.10552710  .00000069  00000+0  13559-3 0  9997
2 54646  87.9237 236.8237 0001780  97.7944 262.3392 13.21826375176289
